{"fetched_at":"2026-03-29T16:36:15Z","count":15609,"tles":[{"name":"STARLINK-11078 [DTC]","line1":"1 58710U 24002F   26087.68819049  .00001353  00000+0  16010-4 0  9990","line2":"2 58710  53.1601 180.1919 0000622  89.4182 270.6907 15.69721953129427","category":"Starlink"}]}