{
  "norad_id": 58710,
  "name": "STARLINK-11078 [DTC]",
  "history": [
    {
      "epoch": "2026-03-28T16:30:59.658336Z",
      "apogee_km": 360.1119756154194,
      "perigee_km": 359.2731158369761,
      "latitude_deg": -1.663450728667927e-05,
      "longitude_deg": 106.3382638645788,
      "height_km": 360.6025899887515,
      "semi_major_axis_km": 6737.8295457261975,
      "eccentricity": 6.225e-05,
      "inclination_deg": 53.1601,
      "raan_deg": 180.1919,
      "arg_perigee_deg": 89.4182,
      "mean_anomaly_deg": 270.6907,
      "mean_motion_rev_day": 15.69721953
    }
  ]
}